IRIDIUM 152             
1 43479U 18047D   26063.23974871  .00000185  00000+0  59056-4 0  9997
2 43479  86.3985 132.2205 0002267  91.9971 268.1484 14.34218327407443
IRIDIUM 147             
1 43480U 18047E   26063.59493026  .00000266  00000+0  87999-4 0  9993
2 43480  86.3986 132.0754 0002218  99.5061 260.6385 14.34219988407499
IRIDIUM 110             
1 43481U 18047F   26063.60127686  .00000092  00000+0  25666-4 0  9992
2 43481  86.3986 132.1615 0002556  89.5816 270.5673 14.34218120407485
IRIDIUM 162             
1 43482U 18047G   26063.26513371  .00000459  00000+0  13031-3 0  9994
2 43482  86.4508 132.2416 0002123  91.9778 268.1666 14.43282729409990
IRIDIUM 160             
1 43569U 18061A   26063.54711184  .00000064  00000+0  15790-4 0  9996
2 43569  86.3922 100.5685 0002366  92.1906 267.9561 14.34218146398378
IRIDIUM 166             
1 43570U 18061B   26063.50271284  .00000156  00000+0  48543-4 0  9990
2 43570  86.3919 100.5388 0002201  96.2463 263.8984 14.34218611398390
IRIDIUM 158             
1 43571U 18061C   26063.81984231  .00000166  00000+0  52045-4 0  9991
2 43571  86.3923 100.4163 0002134  89.3305 270.8135 14.34217843398403
IRIDIUM 165             
1 43572U 18061D   26063.49637074  .00000104  00000+0  29929-4 0  9993
2 43572  86.3921 100.5957 0002178  96.5804 263.5640 14.34218111398382
IRIDIUM 155             
1 43573U 18061E   26063.45831512 -.00000011  00000+0 -11003-4 0  9996
2 43573  86.3921 100.4856 0001949  93.5037 266.6381 14.34217579398349
IRIDIUM 154             
1 43574U 18061F   26063.50906597  .00000330  00000+0  11066-3 0  9999
2 43574  86.3923 100.5934 0002216  98.7976 261.3471 14.34222240398407
IRIDIUM 163             
1 43575U 18061G   26063.49002900  .00000033  00000+0  46059-5 0  9995
2 43575  86.3919 100.5200 0002251  91.1094 269.0360 14.34217645398377
IRIDIUM 156             
1 43576U 18061H   26063.81350005  .00000019  00000+0 -18413-6 0  9993
2 43576  86.3923 100.3915 0001920  93.8509 266.2906 14.34217731398412
IRIDIUM 164             
1 43577U 18061J   26063.79447329  .00000378  00000+0  12779-3 0  9990
2 43577  86.3922 100.4384 0002319  97.4869 262.6591 14.34217811398458
IRIDIUM 159             
1 43578U 18061K   26063.48368628 -.00000025  00000+0 -16161-4 0  9992
2 43578  86.3921 100.5072 0002276  92.3332 267.8125 14.34217497398375
IRIDIUM 180             
1 43922U 19002A   26063.41341368  .00000039  00000+0  67605-5 0  9999
2 43922  86.3967  37.3708 0002293  85.9622 274.1836 14.34217762373974
IRIDIUM 176             
1 43923U 19002B   26063.42074955  .00001579  00000+0  24653-3 0  9990
2 43923  86.6084  37.3258 0002422  88.7981 271.3513 14.72246976383839
IRIDIUM 168             
1 43924U 19002C   26063.47683373  .00000404  00000+0  13728-3 0  9993
2 43924  86.3966  37.4185 0002211  86.5754 273.5694 14.34221316373962
